{"type": "FeatureCollection", "features": [ {"type": "Feature", "properties": {"norad_id": 35961, "name": "COSMOS 2251 DEB", "group": "cosmos-2251-debris", "lat": -59.51310871468021, "lon": 51.00052722363052, "alt_km": 924.4991958824303, "timestamp": "2025-12-14T03:55:53.184914+00:00", "meta": {"OBJECT_NAME": "COSMOS 2251 DEB", "OBJECT_ID": "1993-036AVB", "EPOCH": "2025-12-12T23:27:31.211712", "MEAN_MOTION": 14.05387314, "ECCENTRICITY": 0.01919165, "INCLINATION": 73.9249, "RA_OF_ASC_NODE": 203.761, "ARG_OF_PERICENTER": 137.1777, "MEAN_ANOMALY": 224.4492, "EPHEMERIS_TYPE": 0, "CLASSIFICATION_TYPE": "U", "NORAD_CAT_ID": 35961, "ELEMENT_SET_NO": 999, "REV_AT_EPOCH": 62685, "BSTAR": 0.0013108557, "MEAN_MOTION_DOT": 2.484e-05, "MEAN_MOTION_DDOT": 0}, "tle": {"line1": "1 35961U 93036AVB 25346.97744458  .00002484  00000+0  13109-2 0  9996", "line2": "2 35961  73.9249 203.7610 0191916 137.1777 224.4492 14.05387314626859"}}, "geometry": {"type": "Point", "coordinates": [51.00052722363052, -59.51310871468021]}}, {"type": "Feature", "properties": {"norad_id": 35979, "name": "COSMOS 2251 DEB", "group": "cosmos-2251-debris", "lat": 51.3956238171361, "lon": 34.551017009068964, "alt_km": 660.4041570529562, "timestamp": "2025-12-14T03:55:53.184925+00:00", "meta": {"OBJECT_NAME": "COSMOS 2251 DEB", "OBJECT_ID": "1993-036AVV", "EPOCH": "2025-12-12T23:45:06.669792", "MEAN_MOTION": 14.74652089, "ECCENTRICITY": 0.00589078, "INCLINATION": 74.0101, "RA_OF_ASC_NODE": 237.8948, "ARG_OF_PERICENTER": 10.0091, "MEAN_ANOMALY": 4.2264, "EPHEMERIS_TYPE": 0, "CLASSIFICATION_TYPE": "U", "NORAD_CAT_ID": 35979, "ELEMENT_SET_NO": 999, "REV_AT_EPOCH": 88637, "BSTAR": 0.0014067844, "MEAN_MOTION_DOT": 9.634e-05, "MEAN_MOTION_DDOT": 0}, "tle": {"line1": "1 35979U 93036AVV 25346.98966053  .00009634  00000+0  14068-2 0  9992", "line2": "2 35979  74.0101 237.8948 0058907  10.0091   4.2264 14.74652089886375"}}, "geometry": {"type": "Point", "coordinates": [34.551017009068964, 51.3956238171361]}}, {"type": "Feature", "properties": {"norad_id": 35980, "name": "COSMOS 2251 DEB", "group": "cosmos-2251-debris", "lat": -68.04853601351219, "lon": 74.21169715861784, "alt_km": 669.6050217699812, "timestamp": "2025-12-14T03:55:53.184935+00:00", "meta": {"OBJECT_NAME": "COSMOS 2251 DEB", "OBJECT_ID": "1993-036AVW", "EPOCH": "2025-12-12T16:04:36.825888", "MEAN_MOTION": 14.59307248, "ECCENTRICITY": 0.00536829, "INCLINATION": 73.9106, "RA_OF_ASC_NODE": 122.815, "ARG_OF_PERICENTER": 257.3132, "MEAN_ANOMALY": 102.2028, "EPHEMERIS_TYPE": 0, "CLASSIFICATION_TYPE": "U", "NORAD_CAT_ID": 35980, "ELEMENT_SET_NO": 999, "REV_AT_EPOCH": 61485, "BSTAR": 0.0026199554, "MEAN_MOTION_DOT": 0.00012627, "MEAN_MOTION_DDOT": 0}, "tle": {"line1": "1 35980U 93036AVW 25346.66987067  .00012627  00000+0  26200-2 0  9994", "line2": "2 35980  73.9106 122.8150 0053682 257.3132 102.2028 14.59307248614851"}}, "geometry": {"type": "Point", "coordinates": [74.21169715861784, -68.04853601351219]}}, {"type": "Feature", "properties": {"norad_id": 35982, "name": "COSMOS 2251 DEB", "group": "cosmos-2251-debris", "lat": -44.15282730378478, "lon": -179.68460504778062, "alt_km": 735.8012069513925, "timestamp": "2025-12-14T03:55:53.184945+00:00", "meta": {"OBJECT_NAME": "COSMOS 2251 DEB", "OBJECT_ID": "1993-036AVY", "EPOCH": "2025-12-12T18:04:28.503552", "MEAN_MOTION": 14.62750675, "ECCENTRICITY": 0.0064127, "INCLINATION": 74.0586, "RA_OF_ASC_NODE": 346.9035, "ARG_OF_PERICENTER": 53.2194, "MEAN_ANOMALY": 307.4835, "EPHEMERIS_TYPE": 0, "CLASSIFICATION_TYPE": "U", "NORAD_CAT_ID": 35982, "ELEMENT_SET_NO": 999, "REV_AT_EPOCH": 86166, "BSTAR": 0.00087981481, "MEAN_MOTION_DOT": 4.592e-05, "MEAN_MOTION_DDOT": 0}, "tle": {"line1": "1 35982U 93036AVY 25346.75310768  .00004592  00000+0  87981-3 0  9990", "line2": "2 35982  74.0586 346.9035 0064127  53.2194 307.4835 14.62750675861663"}}, "geometry": {"type": "Point", "coordinates": [-179.68460504778062, -44.15282730378478]}}, {"type": "Feature", "properties": {"norad_id": 35987, "name": "COSMOS 2251 DEB", "group": "cosmos-2251-debris", "lat": 57.10505360032887, "lon": 117.65942308092521, "alt_km": 713.8135980901025, "timestamp": "2025-12-14T03:55:53.184956+00:00", "meta": {"OBJECT_NAME": "COSMOS 2251 DEB", "OBJECT_ID": "1993-036AWD", "EPOCH": "2025-12-11T05:30:31.150080", "MEAN_MOTION": 14.43110132, "ECCENTRICITY": 0.00459363, "INCLINATION": 74.0001, "RA_OF_ASC_NODE": 329.4532, "ARG_OF_PERICENTER": 95.6067, "MEAN_ANOMALY": 265.033, "EPHEMERIS_TYPE": 0, "CLASSIFICATION_TYPE": "U", "NORAD_CAT_ID": 35987, "ELEMENT_SET_NO": 999, "REV_AT_EPOCH": 61043, "BSTAR": 0.0014697546, "MEAN_MOTION_DOT": 4.973e-05, "MEAN_MOTION_DDOT": 0}, "tle": {"line1": "1 35987U 93036AWD 25345.22952720  .00004973  00000+0  14698-2 0  9993", "line2": "2 35987  74.0001 329.4532 0045936  95.6067 265.0330 14.43110132610437"}}, "geometry": {"type": "Point", "coordinates": [117.65942308092521, 57.10505360032887]}}, {"type": "Feature", "properties": {"norad_id": 35989, "name": "COSMOS 2251 DEB", "group": "cosmos-2251-debris", "lat": 44.50984426650972, "lon": 84.87270041832787, "alt_km": 774.135900854888, "timestamp": "2025-12-14T03:55:53.184965+00:00", "meta": {"OBJECT_NAME": "COSMOS 2251 DEB", "OBJECT_ID": "1993-036AWF", "EPOCH": "2025-12-13T02:15:17.161632", "MEAN_MOTION": 14.3710324, "ECCENTRICITY": 0.00220362, "INCLINATION": 74.0383, "RA_OF_ASC_NODE": 283.1801, "ARG_OF_PERICENTER": 4.8698, "MEAN_ANOMALY": 355.2666, "EPHEMERIS_TYPE": 0, "CLASSIFICATION_TYPE": "U", "NORAD_CAT_ID": 35989, "ELEMENT_SET_NO": 999, "REV_AT_EPOCH": 87184, "BSTAR": 0.00037396627, "MEAN_MOTION_DOT": 1.088e-05, "MEAN_MOTION_DDOT": 0}, "tle": {"line1": "1 35989U 93036AWF 25347.09394863  .00001088  00000+0  37397-3 0  9996", "line2": "2 35989  74.0383 283.1801 0022036   4.8698 355.2666 14.37103240871848"}}, "geometry": {"type": "Point", "coordinates": [84.87270041832787, 44.50984426650972]}}, {"type": "Feature", "properties": {"norad_id": 35993, "name": "COSMOS 2251 DEB", "group": "cosmos-2251-debris", "lat": 23.070943079335287, "lon": 143.041095556174, "alt_km": 654.9456517112485, "timestamp": "2025-12-14T03:55:53.184975+00:00", "meta": {"OBJECT_NAME": "COSMOS 2251 DEB", "OBJECT_ID": "1993-036AWK", "EPOCH": "2025-12-13T05:55:18.939936", "MEAN_MOTION": 14.6530961, "ECCENTRICITY": 0.00288758, "INCLINATION": 74.015, "RA_OF_ASC_NODE": 331.8205, "ARG_OF_PERICENTER": 161.3333, "MEAN_ANOMALY": 198.8902, "EPHEMERIS_TYPE": 0, "CLASSIFICATION_TYPE": "U", "NORAD_CAT_ID": 35993, "ELEMENT_SET_NO": 999, "REV_AT_EPOCH": 60450, "BSTAR": 0.0012058199, "MEAN_MOTION_DOT": 6.521e-05, "MEAN_MOTION_DDOT": 0}, "tle": {"line1": "1 35993U 93036AWK 25347.24674699  .00006521  00000+0  12058-2 0  9999", "line2": "2 35993  74.0150 331.8205 0028875 161.3333 198.8902 14.65309610604507"}}, "geometry": {"type": "Point", "coordinates": [143.041095556174, 23.070943079335287]}}, {"type": "Feature", "properties": {"norad_id": 35996, "name": "COSMOS 2251 DEB", "group": "cosmos-2251-debris", "lat": 68.33899805503464, "lon": -125.7160483885492, "alt_km": 527.2478055107958, "timestamp": "2025-12-14T03:55:53.184985+00:00", "meta": {"OBJECT_NAME": "COSMOS 2251 DEB", "OBJECT_ID": "1993-036AWN", "EPOCH": "2025-12-11T00:41:09.521088", "MEAN_MOTION": 15.0906793, "ECCENTRICITY": 0.00884253, "INCLINATION": 74.0157, "RA_OF_ASC_NODE": 106.9511, "ARG_OF_PERICENTER": 198.4339, "MEAN_ANOMALY": 161.3644, "EPHEMERIS_TYPE": 0, "CLASSIFICATION_TYPE": "U", "NORAD_CAT_ID": 35996, "ELEMENT_SET_NO": 999, "REV_AT_EPOCH": 72300, "BSTAR": 0.0011651351, "MEAN_MOTION_DOT": 0.00020245, "MEAN_MOTION_DDOT": 0}, "tle": {"line1": "1 35996U 93036AWN 25345.02858242  .00020245  00000+0  11651-2 0  9991", "line2": "2 35996  74.0157 106.9511 0088425 198.4339 161.3644 15.09067930723002"}}, "geometry": {"type": "Point", "coordinates": [-125.7160483885492, 68.33899805503464]}}, {"type": "Feature", "properties": {"norad_id": 35997, "name": "COSMOS 2251 DEB", "group": "cosmos-2251-debris", "lat": -71.53849220232628, "lon": 63.60084057770323, "alt_km": 717.0949444889338, "timestamp": "2025-12-14T03:55:53.184995+00:00", "meta": {"OBJECT_NAME": "COSMOS 2251 DEB", "OBJECT_ID": "1993-036AWP", "EPOCH": "2025-12-13T06:52:53.661216", "MEAN_MOTION": 14.51318042, "ECCENTRICITY": 0.00157361, "INCLINATION": 74.043, "RA_OF_ASC_NODE": 186.2643, "ARG_OF_PERICENTER": 261.7105, "MEAN_ANOMALY": 98.2272, "EPHEMERIS_TYPE": 0, "CLASSIFICATION_TYPE": "U", "NORAD_CAT_ID": 35997, "ELEMENT_SET_NO": 999, "REV_AT_EPOCH": 70892, "BSTAR": 0.00097236156, "MEAN_MOTION_DOT": 3.852e-05, "MEAN_MOTION_DDOT": 0}, "tle": {"line1": "1 35997U 93036AWP 25347.28673219  .00003852  00000+0  97236-3 0  9990", "line2": "2 35997  74.0430 186.2643 0015736 261.7105  98.2272 14.51318042708922"}}, "geometry": {"type": "Point", "coordinates": [63.60084057770323, -71.53849220232628]}}, {"type": "Feature", "properties": {"norad_id": 36005, "name": "COSMOS 2251 DEB", "group": "cosmos-2251-debris", "lat": -73.85851292803062, "lon": 9.589733782348128, "alt_km": 709.3700921927093, "timestamp": "2025-12-14T03:55:53.185005+00:00", "meta": {"OBJECT_NAME": "COSMOS 2251 DEB", "OBJECT_ID": "1993-036AWX", "EPOCH": "2025-12-13T00:08:06.545184", "MEAN_MOTION": 14.47358791, "ECCENTRICITY": 0.00619434, "INCLINATION": 74.0268, "RA_OF_ASC_NODE": 93.5081, "ARG_OF_PERICENTER": 230.821, "MEAN_ANOMALY": 128.7437, "EPHEMERIS_TYPE": 0, "CLASSIFICATION_TYPE": "U", "NORAD_CAT_ID": 36005, "ELEMENT_SET_NO": 999, "REV_AT_EPOCH": 87588, "BSTAR": 0.00033017096, "MEAN_MOTION_DOT": 1.21e-05, "MEAN_MOTION_DDOT": 0}, "tle": {"line1": "1 36005U 93036AWX 25347.00563131  .00001210  00000+0  33017-3 0  9995", "line2": "2 36005  74.0268  93.5081 0061943 230.8210 128.7437 14.47358791875885"}}, "geometry": {"type": "Point", "coordinates": [9.589733782348128, -73.85851292803062]}}]}